[{"OBJECT_NAME":"OBJECT B","OBJECT_ID":"2021-091B","EPOCH":"2026-03-09T22:30:24.924672","MEAN_MOTION":15.17988278,"ECCENTRICITY":0.00142689,"INCLINATION":97.448,"RA_OF_ASC_NODE":258.0458,"ARG_OF_PERICENTER":31.6297,"MEAN_ANOMALY":328.5792,"EPHEMERIS_TYPE":0,"CLASSIFICATION_TYPE":"U","NORAD_CAT_ID":49316,"ELEMENT_SET_NO":999,"REV_AT_EPOCH":24392,"BSTAR":0.00037182994,"MEAN_MOTION_DOT":7.511e-5,"MEAN_MOTION_DDOT":0},{"OBJECT_NAME":"STARLINK-30227","OBJECT_ID":"2023-113L","EPOCH":"2026-03-09T05:24:25.568352","MEAN_MOTION":15.18160462,"ECCENTRICITY":0.00027892,"INCLINATION":43.0053,"RA_OF_ASC_NODE":4.8681,"ARG_OF_PERICENTER":225.8359,"MEAN_ANOMALY":134.226,"EPHEMERIS_TYPE":0,"CLASSIFICATION_TYPE":"U","NORAD_CAT_ID":57505,"ELEMENT_SET_NO":999,"REV_AT_EPOCH":14376,"BSTAR":0.0015710865,"MEAN_MOTION_DOT":0.00032605,"MEAN_MOTION_DDOT":0}]
